IRIDIUM 119             
1 42959U 17061E   23342.27526448  .00000271  00000+0  89573-4 0  9991
2 42959  86.3984  50.5169 0002316 101.6665 258.4791 14.34217608322674
IRIDIUM 107             
1 42960U 17061F   23341.59660491  .00000302  00000+0  10088-3 0  9993
2 42960  86.3985  50.8164 0002431  94.9994 265.1480 14.34219201322583
IRIDIUM 132             
1 42961U 17061G   23342.23086130  .00000279  00000+0  92565-4 0  9992
2 42961  86.3983  50.5369 0002420  95.8042 264.3430 14.34216951322673
IRIDIUM 136             
1 42962U 17061H   23342.26258022  .00000311  00000+0  10414-3 0  9996
2 42962  86.3982  50.5257 0001996 102.6304 257.5115 14.34217273322698
IRIDIUM 139             
1 42963U 17061J   23342.26892534  .00000256  00000+0  84393-4 0  9995
2 42963  86.3985  50.5707 0002412  96.7302 263.4169 14.34216498322702
IRIDIUM 125             
1 42964U 17061K   23341.55854711  .00000314  00000+0  10495-3 0  9998
2 42964  86.3988  50.9119 0002483 103.9326 256.2146 14.34223125322612
IRIDIUM 135             
1 43070U 17083A   23341.53267413  .00000008  00000+0 -42793-5 0  9995
2 43070  86.3960 347.6306 0002070  82.9302 277.2129 14.34212267311906
IRIDIUM 138             
1 43071U 17083B   23341.55805182  .00000331  00000+0  11104-3 0  9997
2 43071  86.3955 347.3618 0002328  97.6868 262.4593 14.34215595311896
